IRIDIUM 106             
1 41917U 17003A   24084.47826655  .00000083  00000+0  22682-4 0  9998
2 41917  86.3929  68.9906 0002589  86.3664 273.7827 14.34218402376434
IRIDIUM 103             
1 41918U 17003B   24084.46558067  .00000009  00000+0 -39022-5 0  9993
2 41918  86.3927  68.8982 0002285  97.5298 262.6157 14.34217903376456
IRIDIUM 109             
1 41919U 17003C   24084.47192383  .00000116  00000+0  34227-4 0  9999
2 41919  86.3928  68.9417 0002055  93.0069 267.1362 14.34218883376427
IRIDIUM 102             
1 41920U 17003D   24084.85882035  .00000800  00000+0  27856-3 0  9992
2 41920  86.3932  68.7207 0002132  89.3537 270.7903 14.34220359376560
IRIDIUM 105             
1 41921U 17003E   24084.89923896  .00001866  00000+0  65862-3 0  9990
2 41921  86.3999  37.1186 0002270  86.7677 273.3779 14.34242642378425
IRIDIUM 104             
1 41922U 17003F   24084.87151246  .00001317  00000+0  46331-3 0  9992
2 41922  86.3931  68.7453 0002148  91.9470 268.1972 14.34217277376557
IRIDIUM 114             
1 41923U 17003G   24084.45923897  .00000328  00000+0  10989-3 0  9997
2 41923  86.3929  68.9045 0002441  84.4176 275.7299 14.34220014376470
IRIDIUM 108             
1 41924U 17003H   24084.41775708  .00000545  00000+0  18745-3 0  9999
2 41924  86.3992  37.2496 0002421  82.7359 277.4112 14.34219235378324
